{
"type": "FeatureCollection",
"name": "Coimbra_viewpoints",
"crs": { "type": "name", "properties": { "name": "urn:ogc:def:crs:OGC:1.3:CRS84" } },
"features": [
{ "type": "Feature", "properties": { "full_id": "n1357584881", "osm_id": "1357584881", "osm_type": "node", "tourism": "viewpoint", "name": null, "direction": null, "description:pt": null }, "geometry": { "type": "Point", "coordinates": [ -8.4243915, 40.206728 ] } },
{ "type": "Feature", "properties": { "full_id": "n1485971758", "osm_id": "1485971758", "osm_type": "node", "tourism": "viewpoint", "name": null, "direction": null, "description:pt": null }, "geometry": { "type": "Point", "coordinates": [ -8.3772417, 40.2090946 ] } },
{ "type": "Feature", "properties": { "full_id": "n2246572666", "osm_id": "2246572666", "osm_type": "node", "tourism": "viewpoint", "name": null, "direction": "SW-SSE", "description:pt": "Vista parcial do Jardim Botânico, do Mondego e, para lá do rio, dos Mosteiros de Santa-Clara (Velha e Nova). Vista das pontes de Pedro e Inês e da Rainha Santa Isabel." }, "geometry": { "type": "Point", "coordinates": [ -8.4258634, 40.2069869 ] } },
{ "type": "Feature", "properties": { "full_id": "n2368931999", "osm_id": "2368931999", "osm_type": "node", "tourism": "viewpoint", "name": null, "direction": null, "description:pt": null }, "geometry": { "type": "Point", "coordinates": [ -8.4147297, 40.2051778 ] } },
{ "type": "Feature", "properties": { "full_id": "n2833774156", "osm_id": "2833774156", "osm_type": "node", "tourism": "viewpoint", "name": "Observatório", "direction": null, "description:pt": null }, "geometry": { "type": "Point", "coordinates": [ -8.4627794, 40.2227449 ] } },
{ "type": "Feature", "properties": { "full_id": "n2935837419", "osm_id": "2935837419", "osm_type": "node", "tourism": "viewpoint", "name": null, "direction": null, "description:pt": null }, "geometry": { "type": "Point", "coordinates": [ -8.4084856, 40.2244289 ] } },
{ "type": "Feature", "properties": { "full_id": "n2967015439", "osm_id": "2967015439", "osm_type": "node", "tourism": "viewpoint", "name": null, "direction": null, "description:pt": null }, "geometry": { "type": "Point", "coordinates": [ -8.4249244, 40.1909865 ] } },
{ "type": "Feature", "properties": { "full_id": "n4311225591", "osm_id": "4311225591", "osm_type": "node", "tourism": "viewpoint", "name": null, "direction": null, "description:pt": null }, "geometry": { "type": "Point", "coordinates": [ -8.4330051, 40.2066152 ] } },
{ "type": "Feature", "properties": { "full_id": "n5920512585", "osm_id": "5920512585", "osm_type": "node", "tourism": "viewpoint", "name": null, "direction": null, "description:pt": null }, "geometry": { "type": "Point", "coordinates": [ -8.4515016, 40.1816739 ] } },
{ "type": "Feature", "properties": { "full_id": "n6077842605", "osm_id": "6077842605", "osm_type": "node", "tourism": "viewpoint", "name": null, "direction": "NNW", "description:pt": null }, "geometry": { "type": "Point", "coordinates": [ -8.432782, 40.2022661 ] } },
{ "type": "Feature", "properties": { "full_id": "n7273610543", "osm_id": "7273610543", "osm_type": "node", "tourism": "viewpoint", "name": null, "direction": "NE", "description:pt": null }, "geometry": { "type": "Point", "coordinates": [ -8.4369743, 40.2029422 ] } },
{ "type": "Feature", "properties": { "full_id": "n7828290372", "osm_id": "7828290372", "osm_type": "node", "tourism": "viewpoint", "name": null, "direction": null, "description:pt": null }, "geometry": { "type": "Point", "coordinates": [ -8.4353676, 40.2036202 ] } },
{ "type": "Feature", "properties": { "full_id": "n7828290383", "osm_id": "7828290383", "osm_type": "node", "tourism": "viewpoint", "name": null, "direction": null, "description:pt": null }, "geometry": { "type": "Point", "coordinates": [ -8.4366846, 40.2041693 ] } },
{ "type": "Feature", "properties": { "full_id": "n8957677821", "osm_id": "8957677821", "osm_type": "node", "tourism": "viewpoint", "name": null, "direction": null, "description:pt": null }, "geometry": { "type": "Point", "coordinates": [ -8.4240792, 40.20673 ] } },
{ "type": "Feature", "properties": { "full_id": "n9611123043", "osm_id": "9611123043", "osm_type": "node", "tourism": "viewpoint", "name": "Miradouro de Vale de Canas", "direction": "240", "description:pt": null }, "geometry": { "type": "Point", "coordinates": [ -8.3832789, 40.2115131 ] } },
{ "type": "Feature", "properties": { "full_id": "n9704512707", "osm_id": "9704512707", "osm_type": "node", "tourism": "viewpoint", "name": null, "direction": "S-E", "description:pt": null }, "geometry": { "type": "Point", "coordinates": [ -8.4145172, 40.2049117 ] } },
{ "type": "Feature", "properties": { "full_id": "n10773754416", "osm_id": "10773754416", "osm_type": "node", "tourism": "viewpoint", "name": null, "direction": null, "description:pt": null }, "geometry": { "type": "Point", "coordinates": [ -8.427085, 40.2082851 ] } },
{ "type": "Feature", "properties": { "full_id": "n10893154905", "osm_id": "10893154905", "osm_type": "node", "tourism": "viewpoint", "name": null, "direction": null, "description:pt": null }, "geometry": { "type": "Point", "coordinates": [ -8.3779274, 40.209381 ] } },
{ "type": "Feature", "properties": { "full_id": "n11563096595", "osm_id": "11563096595", "osm_type": "node", "tourism": "viewpoint", "name": null, "direction": "SSW", "description:pt": null }, "geometry": { "type": "Point", "coordinates": [ -8.4185767, 40.2119248 ] } },
{ "type": "Feature", "properties": { "full_id": "n12560589957", "osm_id": "12560589957", "osm_type": "node", "tourism": "viewpoint", "name": null, "direction": "S", "description:pt": null }, "geometry": { "type": "Point", "coordinates": [ -8.436865, 40.2217846 ] } },
{ "type": "Feature", "properties": { "full_id": "n13112493854", "osm_id": "13112493854", "osm_type": "node", "tourism": "viewpoint", "name": null, "direction": null, "description:pt": null }, "geometry": { "type": "Point", "coordinates": [ -8.4285557, 40.2068919 ] } }
]
}
