{
"type": "FeatureCollection",
"name": "Coimbra_nature_observations",
"features": [
{ "type": "Feature", "properties": { "observationId": 343380448, "observedAt": "2026-03-16T09:46:51Z", "observedDate": "2026-03-16", "qualityGrade": "research", "speciesName": "Scrophularia grandiflora", "iconicTaxon": "Plantae", "observerLogin": "silvia_polygala", "positionalAccuracy_m": 34, "photoUrl": "https://inaturalist-open-data.s3.amazonaws.com/photos/625487152/square.jpg", "photoMediumUrl": null, "photoOriginalUrl": null, "photos": [ { "square": "https://inaturalist-open-data.s3.amazonaws.com/photos/625487152/square.jpg", "medium": null, "original": null }, { "square": "https://inaturalist-open-data.s3.amazonaws.com/photos/625487167/square.jpg", "medium": null, "original": null } ], "observationURL": "https://www.inaturalist.org/observations/343380448" }, "geometry": { "type": "Point", "coordinates": [ -8.400775, 40.215078333299999 ] } },
{ "type": "Feature", "properties": { "observationId": 343379686, "observedAt": "2026-03-16T09:39:11Z", "observedDate": "2026-03-16", "qualityGrade": "research", "speciesName": "Veronica persica", "iconicTaxon": "Plantae", "observerLogin": "silvia_polygala", "positionalAccuracy_m": 13, "photoUrl": "https://inaturalist-open-data.s3.amazonaws.com/photos/625485463/square.jpg", "photoMediumUrl": null, "photoOriginalUrl": null, "photos": [ { "square": "https://inaturalist-open-data.s3.amazonaws.com/photos/625485463/square.jpg", "medium": null, "original": null }, { "square": "https://inaturalist-open-data.s3.amazonaws.com/photos/625485483/square.jpg", "medium": null, "original": null } ], "observationURL": "https://www.inaturalist.org/observations/343379686" }, "geometry": { "type": "Point", "coordinates": [ -8.400653333299999, 40.214338333299999 ] } },
{ "type": "Feature", "properties": { "observationId": 343379577, "observedAt": "2026-03-16T09:24:11Z", "observedDate": "2026-03-16", "qualityGrade": "needs_id", "speciesName": "Euphorbia segetalis", "iconicTaxon": "Plantae", "observerLogin": "silvia_polygala", "positionalAccuracy_m": 9, "photoUrl": "https://inaturalist-open-data.s3.amazonaws.com/photos/625485285/square.jpg", "photoMediumUrl": null, "photoOriginalUrl": null, "photos": [ { "square": "https://inaturalist-open-data.s3.amazonaws.com/photos/625485285/square.jpg", "medium": null, "original": null }, { "square": "https://inaturalist-open-data.s3.amazonaws.com/photos/625485305/square.jpg", "medium": null, "original": null } ], "observationURL": "https://www.inaturalist.org/observations/343379577" }, "geometry": { "type": "Point", "coordinates": [ -8.4006333333, 40.215286666700003 ] } },
{ "type": "Feature", "properties": { "observationId": 343347035, "observedAt": "2026-03-16T18:12:14Z", "observedDate": "2026-03-16", "qualityGrade": "needs_id", "speciesName": "Cortaderia selloana", "iconicTaxon": "Plantae", "observerLogin": "pedrorgomes", "positionalAccuracy_m": 18, "photoUrl": "https://static.inaturalist.org/photos/625418865/square.jpg", "photoMediumUrl": null, "photoOriginalUrl": null, "photos": [ { "square": "https://static.inaturalist.org/photos/625418865/square.jpg", "medium": null, "original": null } ], "observationURL": "https://www.inaturalist.org/observations/343347035" }, "geometry": { "type": "Point", "coordinates": [ -8.4145607167, 40.19270155 ] } },
{ "type": "Feature", "properties": { "observationId": 343346973, "observedAt": "2026-03-16T18:11:51Z", "observedDate": "2026-03-16", "qualityGrade": "needs_id", "speciesName": "Cortaderia selloana", "iconicTaxon": "Plantae", "observerLogin": "pedrorgomes", "positionalAccuracy_m": 18, "photoUrl": "https://static.inaturalist.org/photos/625418831/square.jpg", "photoMediumUrl": null, "photoOriginalUrl": null, "photos": [ { "square": "https://static.inaturalist.org/photos/625418831/square.jpg", "medium": null, "original": null } ], "observationURL": "https://www.inaturalist.org/observations/343346973" }, "geometry": { "type": "Point", "coordinates": [ -8.414564366700001, 40.1927070833 ] } },
{ "type": "Feature", "properties": { "observationId": 343342556, "observedAt": "2026-03-16T15:33:44Z", "observedDate": "2026-03-16", "qualityGrade": "needs_id", "speciesName": null, "iconicTaxon": null, "observerLogin": "davidoskas", "positionalAccuracy_m": 3, "photoUrl": "https://inaturalist-open-data.s3.amazonaws.com/photos/625409857/square.jpg", "photoMediumUrl": null, "photoOriginalUrl": null, "photos": [ { "square": "https://inaturalist-open-data.s3.amazonaws.com/photos/625409857/square.jpg", "medium": null, "original": null } ], "observationURL": "https://www.inaturalist.org/observations/343342556" }, "geometry": { "type": "Point", "coordinates": [ -8.42077556, 40.20466202 ] } },
{ "type": "Feature", "properties": { "observationId": 343324910, "observedAt": "2026-03-16T15:05:11Z", "observedDate": "2026-03-16", "qualityGrade": "casual", "speciesName": "Magnolia", "iconicTaxon": "Plantae", "observerLogin": "davidoskas", "positionalAccuracy_m": 4, "photoUrl": "https://inaturalist-open-data.s3.amazonaws.com/photos/625374657/square.jpg", "photoMediumUrl": null, "photoOriginalUrl": null, "photos": [ { "square": "https://inaturalist-open-data.s3.amazonaws.com/photos/625374657/square.jpg", "medium": null, "original": null } ], "observationURL": "https://www.inaturalist.org/observations/343324910" }, "geometry": { "type": "Point", "coordinates": [ -8.4207469, 40.20467855 ] } },
{ "type": "Feature", "properties": { "observationId": 343320722, "observedAt": "2026-03-16T15:04:20Z", "observedDate": "2026-03-16", "qualityGrade": "needs_id", "speciesName": null, "iconicTaxon": null, "observerLogin": "davidoskas", "positionalAccuracy_m": 3, "photoUrl": "https://inaturalist-open-data.s3.amazonaws.com/photos/625366615/square.jpg", "photoMediumUrl": null, "photoOriginalUrl": null, "photos": [ { "square": "https://inaturalist-open-data.s3.amazonaws.com/photos/625366615/square.jpg", "medium": null, "original": null } ], "observationURL": "https://www.inaturalist.org/observations/343320722" }, "geometry": { "type": "Point", "coordinates": [ -8.42178886, 40.2060281 ] } },
{ "type": "Feature", "properties": { "observationId": 343318937, "observedAt": "2026-03-16T14:49:36Z", "observedDate": "2026-03-16", "qualityGrade": "needs_id", "speciesName": null, "iconicTaxon": null, "observerLogin": "davidoskas", "positionalAccuracy_m": 3, "photoUrl": "https://inaturalist-open-data.s3.amazonaws.com/photos/625362808/square.jpg", "photoMediumUrl": null, "photoOriginalUrl": null, "photos": [ { "square": "https://inaturalist-open-data.s3.amazonaws.com/photos/625362808/square.jpg", "medium": null, "original": null } ], "observationURL": "https://www.inaturalist.org/observations/343318937" }, "geometry": { "type": "Point", "coordinates": [ -8.42168185, 40.20695047 ] } },
{ "type": "Feature", "properties": { "observationId": 343318893, "observedAt": "2026-03-16T14:42:54Z", "observedDate": "2026-03-16", "qualityGrade": "needs_id", "speciesName": null, "iconicTaxon": null, "observerLogin": "davidoskas", "positionalAccuracy_m": 4, "photoUrl": "https://static.inaturalist.org/photos/625362681/square.jpg", "photoMediumUrl": null, "photoOriginalUrl": null, "photos": [ { "square": "https://static.inaturalist.org/photos/625362681/square.jpg", "medium": null, "original": null } ], "observationURL": "https://www.inaturalist.org/observations/343318893" }, "geometry": { "type": "Point", "coordinates": [ -8.42186924, 40.20725154 ] } },
{ "type": "Feature", "properties": { "observationId": 343318884, "observedAt": "2026-03-16T14:42:25Z", "observedDate": "2026-03-16", "qualityGrade": "needs_id", "speciesName": null, "iconicTaxon": null, "observerLogin": "davidoskas", "positionalAccuracy_m": 5, "photoUrl": "https://static.inaturalist.org/photos/625362649/square.jpg", "photoMediumUrl": null, "photoOriginalUrl": null, "photos": [ { "square": "https://static.inaturalist.org/photos/625362649/square.jpg", "medium": null, "original": null } ], "observationURL": "https://www.inaturalist.org/observations/343318884" }, "geometry": { "type": "Point", "coordinates": [ -8.42188912, 40.20725002 ] } }
]
}
